[{"OBJECT_NAME":"GONETS-M 10","OBJECT_ID":"2014-036C","EPOCH":"2026-03-09T21:39:41.609952","MEAN_MOTION":12.42942435,"ECCENTRICITY":0.00223101,"INCLINATION":82.5163,"RA_OF_ASC_NODE":9.337,"ARG_OF_PERICENTER":1.6749,"MEAN_ANOMALY":358.4402,"EPHEMERIS_TYPE":0,"CLASSIFICATION_TYPE":"U","NORAD_CAT_ID":40063,"ELEMENT_SET_NO":999,"REV_AT_EPOCH":52991,"BSTAR":0.00015092789,"MEAN_MOTION_DOT":3.1e-7,"MEAN_MOTION_DDOT":0},{"OBJECT_NAME":"DELTA 1 DEB","OBJECT_ID":"1973-086DR","EPOCH":"2026-03-08T06:32:05.092224","MEAN_MOTION":12.17881098,"ECCENTRICITY":0.01554512,"INCLINATION":102.7541,"RA_OF_ASC_NODE":197.6097,"ARG_OF_PERICENTER":266.4757,"MEAN_ANOMALY":122.1757,"EPHEMERIS_TYPE":0,"CLASSIFICATION_TYPE":"U","NORAD_CAT_ID":7151,"ELEMENT_SET_NO":999,"REV_AT_EPOCH":32209,"BSTAR":0.0014832139,"MEAN_MOTION_DOT":1.09e-6,"MEAN_MOTION_DDOT":0}]
